1 01587U 65073D   23322.69548081 -.00000101  00000-0 -61346-4 0  9993
2 01587  56.0541 115.3893 0169609 144.7951 216.4293 12.38970968632175
1  1587U 65073D   23323.42166907 -.00000095  00000-0 -17529-4 0  9994
2  1587  56.0542 113.4685 0169582 145.7479 215.4497 12.38970983632745
1 01587U 65073D   23323.58304424 -.00000095  00000-0 -17753-4 0  9998
2 01587  56.0542 113.0416 0169577 145.9594 215.2322 12.38970977632284
1 01587U 65073D   23323.74441939 -.00000091  00000-0  15983-4 0  9997
2 01587  56.0543 112.6149 0169566 146.1732 215.0123 12.38970999632302
1 01587U 65073D   23324.55129510 -.00000087  00000-0  44829-4 0  9991
2 01587  56.0546 110.4807 0169535 147.2316 213.9236 12.38971019632405
1 01587U 65073D   23324.71267026 -.00000084  00000-0  61896-4 0  9994
2 01587  56.0546 110.0540 0169526 147.4445 213.7045 12.38971021632421
1 01587U 65073D   23325.51954587 -.00000084  00000-0  66321-4 0  9996
2 01587  56.0549 107.9198 0169492 148.5031 212.6150 12.38971034632523
1 01587U 65073D   23325.60023346 -.00000084  00000-0  64299-4 0  9998
2 01587  56.0549 107.7064 0169489 148.6087 212.5063 12.38971022632531
1  1587U 65073D   23325.60023346 -.00000084  00000-0  64299-4 0  9998
2  1587  56.0549 107.7064 0169489 148.6087 212.5063 12.38971022633015
1 01587U 65073D   23326.56848406 -.00000088  00000-0  36537-4 0  9994
2 01587  56.0553 105.1456 0169445 149.8830 211.1944 12.38971027632655
1 01587U 65073D   23326.72985916 -.00000087  00000-0  41547-4 0  9996
2 01587  56.0553 104.7187 0169439 150.0935 210.9777 12.38971030632671
1 01587U 65073D   23327.53673449 -.00000091  00000-0  16608-4 0  9996
2 01587  56.0556 102.5847 0169403 151.1564 209.8830 12.38971070632776
1 01587U 65073D   23327.69810958 -.00000090  00000-0  24040-4 0  9999
2 01587  56.0555 102.1579 0169400 151.3662 209.6669 12.38971071632792
1  1587U 65073D   23327.69810958 -.00000090  00000-0  24040-4 0  9999
2  1587  56.0555 102.1579 0169400 151.3662 209.6669 12.38971071633276
1 01587U 65073D   23328.58567245 -.00000100  00000-0 -51450-4 0  9994
2 01587  56.0557  99.8104 0169364 152.5309 208.4669 12.38971039632904
1 01587U 65073D   23329.55392258 -.00000099  00000-0 -46049-4 0  9997
2 01587  56.0559  97.2495 0169326 153.7995 207.1595 12.38971118633029
1 01587U 65073D   23329.79598517 -.00000101  00000-0 -61620-4 0  9995
2 01587  56.0561  96.6095 0169309 154.1197 206.8294 12.38971108633055
1 01587U 65073D   23330.60286033 -.00000111  00000-0 -13466-3 0  9999
2 01587  56.0562  94.4753 0169273 155.1833 205.7328 12.38971050633154
1 01587U 65073D   23330.68354785 -.00000111  00000-0 -12932-3 0  9994
2 01587  56.0562  94.2619 0169270 155.2884 205.6244 12.38971054633168
1 01587U 65073D   23331.65179790 -.00000109  00000-0 -11449-3 0  9992
2 01587  56.0563  91.7010 0169221 156.5640 204.3089 12.38971067633286
1  1587U 65073D   23332.45867296 -.00000110  00000-0 -12412-3 0  9999
2  1587  56.0565  89.5670 0169184 157.6261 203.2132 12.38971041633867
1 01587U 65073D   23332.53936047 -.00000108  00000-0 -10916-3 0  9993
2 01587  56.0565  89.3536 0169180 157.7315 203.1044 12.38971045633396
1 01587U 65073D   23332.62004801 -.00000112  00000-0 -13891-3 0  9997
2 01587  56.0566  89.1402 0169165 157.8410 202.9913 12.38971007633409
1 01587U 65073D   23333.58829797 -.00000103  00000-0 -70903-4 0  9990
2 01587  56.0569  86.5794 0169101 159.1182 201.6733 12.38971039633522
1  1587U 65073D   23334.63723532 -.00000090  00000-0  18627-4 0  9996
2  1587  56.0572  83.8051 0169065 160.5011 200.2459 12.38971086634138
1 01587U 65073D   23335.44411014 -.00000085  00000-0  58093-4 0  9990
2 01587  56.0574  81.6711 0169026 161.5657 199.1469 12.38971116633751
1 01587U 65073D   23336.41235989 -.00000073  00000-0  14481-3 0  9992
2 01587  56.0576  79.1105 0168968 162.8403 197.8306 12.38971186633874
1 01587U 65073D   23338.51023419 -.00000081  00000-0  86744-4 0  9999
2 01587  56.0582  73.5625 0168864 165.6042 194.9755 12.38971183634134
1  1587U 65073D   23338.51023419 -.00000081  00000-0  86744-4 0  9999
2  1587  56.0582  73.5625 0168864 165.6042 194.9755 12.38971183634617
1 01587U 65073D   23339.39779626 -.00000087  00000-0  40025-4 0  9992
2 01587  56.0584  71.2152 0168820 166.7720 193.7688 12.38971188634242
1 01587U 65073D   23339.63985866 -.00000089  00000-0  27526-4 0  9997
2 01587  56.0583  70.5750 0168794 167.0942 193.4358 12.38971161634272
1 01587U 65073D   23340.20467091 -.00000095  00000-0 -18507-4 0  9994
2 01587  56.0585  69.0812 0168767 167.8371 192.6682 12.38971141634347
1 01587U 65073D   23340.52742075 -.00000098  00000-0 -35707-4 0  9991
2 01587  56.0586  68.2277 0168749 168.2603 192.2307 12.38971138634387
1  1587U 65073D   23340.52742075 -.00000098  00000-0 -35707-4 0  9991
2  1587  56.0586  68.2277 0168749 168.2603 192.2307 12.38971138634860
1 01587U 65073D   23341.49567020 -.00000103  00000-0 -76282-4 0  9993
2 01587  56.0587  65.6670 0168705 169.5370 190.9111 12.38971126634502
1 01587U 65073D   23342.54460716 -.00000107  00000-0 -10366-3 0  9998
2 01587  56.0588  62.8930 0168654 170.9197 189.4818 12.38971098634636
1 01587U 65073D   23342.62529461 -.00000106  00000-0 -95552-4 0  9990
2 01587  56.0588  62.6797 0168651 171.0261 189.3718 12.38971105634644
1  1587U 65073D   23342.62529461 -.00000106  00000-0 -95552-4 0  9990
2  1587  56.0588  62.6797 0168651 171.0261 189.3718 12.38971105635128
1 01587U 65073D   23343.59354398 -.00000103  00000-0 -77241-4 0  9994
2 01587  56.0588  60.1189 0168609 172.3028 188.0519 12.38971113634767
1 01587U 65073D   23344.56179325 -.00000098  00000-0 -36062-4 0  9996
2 01587  56.0588  57.5581 0168561 173.5872 186.7240 12.38971136634884
1  1587U 65073D   23345.44935512 -.00000093  00000-0 -28248-6 0  9996
2  1587  56.0589  55.2108 0168514 174.7619 185.5093 12.38971165635476
1 01587U 65073D   23345.53004258 -.00000091  00000-0  11647-4 0  9990
2 01587  56.0589  54.9974 0168514 174.8672 185.4004 12.38971170635009
1 01587U 65073D   23346.41760457 -.00000090  00000-0  17442-4 0  9996
2 01587  56.0589  52.6501 0168472 176.0391 184.1887 12.38971136635114
1 01587U 65073D   23347.30516648 -.00000086  00000-0  47304-4 0  9991
2 01587  56.0590  50.3027 0168433 177.2113 182.9765 12.38971145635229
1  1587U 65073D   23347.95066606 -.00000085  00000-0  57376-4 0  9995
2  1587  56.0590  48.5956 0168398 178.0647 182.0940 12.38971138635789
1 01587U 65073D   23348.51547818 -.00000082  00000-0  74295-4 0  9993
2 01587  56.0591  47.1018 0168364 178.8133 181.3199 12.38971142635373
1 01587U 65073D   23349.48372749 -.00000085  00000-0  55714-4 0  9997
2 01587  56.0591  44.5411 0168315 180.0937 179.9958 12.38971141635492
1  1587U 65073D   23350.04853959 -.00000082  00000-0  75743-4 0  9999
2  1587  56.0592  43.0474 0168282 180.8412 179.2228 12.38971169636040
1 01587U 65073D   23350.37128937 -.00000085  00000-0  51563-4 0  9993
2 01587  56.0591  42.1938 0168267 181.2681 178.7814 12.38971149635604
1 01587U 65073D   23351.42022615 -.00000089  00000-0  22603-4 0  9993
2 01587  56.0592  39.4198 0168215 182.6546 177.3477 12.38971141635736
1 01587U 65073D   23352.38847552 -.00000093  00000-0 -50109-5 0  9993
2 01587  56.0593  36.8593 0168154 183.9365 176.0222 12.38971148635856
1  1587U 65073D   23352.38847552 -.00000093  00000-0 -50109-5 0  9993
2  1587  56.0593  36.8593 0168154 183.9365 176.0222 12.38971148636330
1 01587U 65073D   23352.46916298 -.00000093  00000-0 -37014-5 0  9996
2 01587  56.0592  36.6460 0168147 184.0433 175.9118 12.38971149635860
1 01587U 65073D   23354.32497425 -.00000094  00000-0 -96577-5 0  9999
2 01587  56.0593  31.7379 0168056 186.4976 173.3744 12.38971171636091
1 01587U 65073D   23355.37391113 -.00000094  00000-0 -95759-5 0  9993
2 01587  56.0592  28.9637 0167990 187.8879 171.9372 12.38971153636224
1  1587U 65073D   23355.37391113 -.00000094  00000-0 -95759-5 0  9993
2  1587  56.0592  28.9637 0167990 187.8879 171.9372 12.38971153636707
1 01587U 65073D   23356.10009819 -.00000092  00000-0  24914-6 0  9997
2 01587  56.0592  27.0430 0167950 188.8491 170.9438 12.38971176636319
1 01587U 65073D   23356.42284802 -.00000090  00000-0  19536-4 0  9999
2 01587  56.0592  26.1894 0167928 189.2771 170.5015 12.38971177636356
1 01587U 65073D   23357.22972256 -.00000086  00000-0  44983-4 0  9994
2 01587  56.0593  24.0555 0167886 190.3459 169.3969 12.38971210636450
1 01587U 65073D   23360.37653376 -.00000082  00000-0  73824-4 0  9995
2 01587  56.0593  15.7339 0167702 194.5180 165.0869 12.38971243636842
1  1587U 65073D   23360.37653376 -.00000082  00000-0  73824-4 0  9995
2  1587  56.0593  15.7339 0167702 194.5180 165.0869 12.38971243637326
1 01587U 65073D   23361.42547088 -.00000086  00000-0  45045-4 0  9992
2 01587  56.0593  12.9597 0167655 195.9075 163.6521 12.38971236636977
1 01587U 65073D   23362.31303306 -.00000089  00000-0  20161-4 0  9999
2 01587  56.0592  10.6123 0167609 197.0870 162.4344 12.38971228637085
1  1587U 65073D   23363.11990792 -.00000097  00000-0 -35729-4 0  9995
2  1587  56.0593   8.4783 0167548 198.1586 161.3284 12.38971212637669
1 01587U 65073D   23363.36197045 -.00000098  00000-0 -44393-4 0  9990
2 01587  56.0592   7.8382 0167532 198.4801 160.9966 12.38971179637217
1 01587U 65073D   23364.41090787 -.00000102  00000-0 -71233-4 0  9991
2 01587  56.0592   5.0639 0167474 199.8728 159.5596 12.38971149637344
1 01587U 65073D   23364.97572012 -.00000097  00000-0 -34015-4 0  9998
2 01587  56.0592   3.5697 0167471 200.6201 158.7885 12.38971217637411
1  1587U 65073D   23365.13709513 -.00000101  00000-0 -63341-4 0  9995
2  1587  56.0592   3.1429 0167467 200.8342 158.5677 12.38971190637915
1 01587U 65073D   23365.37915769 -.00000097  00000-0 -36994-4 0  9991
2 01587  56.0590   2.5027 0167461 201.1595 158.2321 12.38971155637462
1 01587U 65073D   24001.34740781 -.00000098  00000-0 -43104-4 0  9998
2 01587  56.0592 359.9419 0167385 202.4425 156.9091 12.38971160637587
1 01587U 65073D   24001.91222047 -.00000098  00000-0 -45088-4 0  9994
2 01587  56.0593 358.4482 0167341 203.1936 156.1349 12.38971144637657
